[{"OBJECT_NAME":"QIANFAN-18","OBJECT_ID":"2024-140T","EPOCH":"2026-03-09T21:16:21.087552","MEAN_MOTION":13.5100423,"ECCENTRICITY":0.00128145,"INCLINATION":88.9713,"RA_OF_ASC_NODE":289.957,"ARG_OF_PERICENTER":301.4475,"MEAN_ANOMALY":58.5423,"EPHEMERIS_TYPE":0,"CLASSIFICATION_TYPE":"U","NORAD_CAT_ID":60396,"ELEMENT_SET_NO":999,"REV_AT_EPOCH":7929,"BSTAR":8.6303486e-5,"MEAN_MOTION_DOT":6.8e-7,"MEAN_MOTION_DDOT":0},{"OBJECT_NAME":"PEGASUS DEB","OBJECT_ID":"1994-029NR","EPOCH":"2026-03-09T21:37:18.138432","MEAN_MOTION":13.15729472,"ECCENTRICITY":0.08341785,"INCLINATION":81.5984,"RA_OF_ASC_NODE":20.8323,"ARG_OF_PERICENTER":11.6163,"MEAN_ANOMALY":350.2951,"EPHEMERIS_TYPE":0,"CLASSIFICATION_TYPE":"U","NORAD_CAT_ID":24340,"ELEMENT_SET_NO":999,"REV_AT_EPOCH":51247,"BSTAR":0.003863276,"MEAN_MOTION_DOT":9.287e-5,"MEAN_MOTION_DDOT":0}]
